COSMOS 2526             
1 43432U 18037A   26116.30544100 -.00000357  00000+0  00000+0 0  9992
2 43432   0.0215 115.5722 0000709  20.4919 316.2683  1.00271015 29434
APSTAR-6C               
1 43450U 18041A   26116.53375065 -.00000330  00000+0  00000+0 0  9995
2 43450   0.0438  13.1280 0002096 348.4396 179.1192  1.00274036 29297
BANGABANDHUSAT-1        
1 43463U 18044A   26117.02267108 -.00000373  00000+0  00000+0 0  9992
2 43463   0.0290  71.2531 0002118 325.4424 305.5822  1.00271751 29198
SES-12                  
1 43488U 18049A   26117.20233530  .00000000  00000+0  00000+0 0  9992
2 43488   0.0151  63.1819 0001174 246.1967  73.6621  1.00267712 28902
FENGYUN 2H              
1 43491U 18050A   26117.00880792 -.00000138  00000+0  00000+0 0  9997
2 43491   2.9019  79.6483 0001673 158.5665  59.2180  1.00274296 28921
TELSTAR 19V             
1 43562U 18059A   26117.18586346 -.00000290  00000+0  00000+0 0  9991
2 43562   0.0202 183.2740 0001747 263.6152 132.1896  1.00270633 28636
TELKOM 4 (MERAH PUTIH)  
1 43587U 18064A   26117.12058527 -.00000354  00000+0  00000+0 0  9994
2 43587   0.0148 242.3065 0002125 185.3477 298.8674  1.00272132 28360
TELSTAR 18V             
1 43611U 18069A   26116.94918101 -.00000305  00000+0  00000+0 0  9995
2 43611   0.0144 266.5213 0002026 118.7440 309.3871  1.00271937 28120
AZERSPACE 2 (IS-38)     
1 43632U 18074A   26117.20044858  .00000126  00000+0  00000+0 0  9993
2 43632   0.0215 254.1930 0001444 133.4629 304.8047  1.00270976 27932
HORIZONS-3E             
1 43633U 18074B   26117.10739284 -.00000041  00000+0  00000+0 0  9994
2 43633   0.0414  73.9030 0000666 260.1791  88.6672  1.00271310 27827
BEIDOU-3 G1             
1 43683U 18085A   26117.22007337 -.00000117  00000+0  00000+0 0  9995
2 43683   2.9471  98.7246 0007393 333.3417  22.2927  1.00265507 27549
GSAT-29                 
1 43698U 18089A   26117.19489045  .00000075  00000+0  00000+0 0  9993
2 43698   0.0718 258.7576 0004010 126.5100 315.1403  1.00271806 27278
ES'HAIL 2               
1 43700U 18090A   26116.57043110  .00000132  00000+0  00000+0 0  9993
2 43700   0.0402  76.1329 0001354 345.0735  24.5116  1.00274610 27155
GEO-KOMPSAT-2A          
1 43823U 18100A   26116.94718766 -.00000355  00000+0  00000+0 0  9996
2 43823   0.0568  67.9377 0002006 358.3688 257.8880  1.00270973 27117
GSAT-11                 
1 43824U 18100B   26117.03636215 -.00000088  00000+0  00000+0 0  9999
2 43824   0.0124 247.4926 0006978 182.5031 232.1269  1.00272365 26968
