[{"OBJECT_NAME":"COSMOS 2526","OBJECT_ID":"2018-037A","EPOCH":"2026-04-26T07:19:50.102400","MEAN_MOTION":1.00271015,"ECCENTRICITY":7.099e-5,"INCLINATION":0.0215,"RA_OF_ASC_NODE":115.5722,"ARG_OF_PERICENTER":20.4919,"MEAN_ANOMALY":316.2683,"EPHEMERIS_TYPE":0,"CLASSIFICATION_TYPE":"U","NORAD_CAT_ID":43432,"ELEMENT_SET_NO":999,"REV_AT_EPOCH":2943,"BSTAR":0,"MEAN_MOTION_DOT":-3.57e-6,"MEAN_MOTION_DDOT":0},{"OBJECT_NAME":"APSTAR-6C","OBJECT_ID":"2018-041A","EPOCH":"2026-04-26T12:48:36.056160","MEAN_MOTION":1.00274036,"ECCENTRICITY":0.0002096,"INCLINATION":0.0438,"RA_OF_ASC_NODE":13.128,"ARG_OF_PERICENTER":348.4396,"MEAN_ANOMALY":179.1192,"EPHEMERIS_TYPE":0,"CLASSIFICATION_TYPE":"U","NORAD_CAT_ID":43450,"ELEMENT_SET_NO":999,"REV_AT_EPOCH":2929,"BSTAR":0,"MEAN_MOTION_DOT":-3.3e-6,"MEAN_MOTION_DDOT":0},{"OBJECT_NAME":"BANGABANDHUSAT-1","OBJECT_ID":"2018-044A","EPOCH":"2026-04-27T00:32:38.781312","MEAN_MOTION":1.00271751,"ECCENTRICITY":0.0002118,"INCLINATION":0.029,"RA_OF_ASC_NODE":71.2531,"ARG_OF_PERICENTER":325.4424,"MEAN_ANOMALY":305.5822,"EPHEMERIS_TYPE":0,"CLASSIFICATION_TYPE":"U","NORAD_CAT_ID":43463,"ELEMENT_SET_NO":999,"REV_AT_EPOCH":2919,"BSTAR":0,"MEAN_MOTION_DOT":-3.73e-6,"MEAN_MOTION_DDOT":0},{"OBJECT_NAME":"SES-12","OBJECT_ID":"2018-049A","EPOCH":"2026-04-27T04:51:21.769920","MEAN_MOTION":1.00267712,"ECCENTRICITY":0.0001174,"INCLINATION":0.0151,"RA_OF_ASC_NODE":63.1819,"ARG_OF_PERICENTER":246.1967,"MEAN_ANOMALY":73.6621,"EPHEMERIS_TYPE":0,"CLASSIFICATION_TYPE":"U","NORAD_CAT_ID":43488,"ELEMENT_SET_NO":999,"REV_AT_EPOCH":2890,"BSTAR":0,"MEAN_MOTION_DOT":0,"MEAN_MOTION_DDOT":0},{"OBJECT_NAME":"FENGYUN 2H","OBJECT_ID":"2018-050A","EPOCH":"2026-04-27T00:12:41.004288","MEAN_MOTION":1.00274296,"ECCENTRICITY":0.0001673,"INCLINATION":2.9019,"RA_OF_ASC_NODE":79.6483,"ARG_OF_PERICENTER":158.5665,"MEAN_ANOMALY":59.218,"EPHEMERIS_TYPE":0,"CLASSIFICATION_TYPE":"U","NORAD_CAT_ID":43491,"ELEMENT_SET_NO":999,"REV_AT_EPOCH":2892,"BSTAR":0,"MEAN_MOTION_DOT":-1.38e-6,"MEAN_MOTION_DDOT":0},{"OBJECT_NAME":"TELSTAR 19V","OBJECT_ID":"2018-059A","EPOCH":"2026-04-27T04:27:38.602944","MEAN_MOTION":1.00270633,"ECCENTRICITY":0.0001747,"INCLINATION":0.0202,"RA_OF_ASC_NODE":183.274,"ARG_OF_PERICENTER":263.6152,"MEAN_ANOMALY":132.1896,"EPHEMERIS_TYPE":0,"CLASSIFICATION_TYPE":"U","NORAD_CAT_ID":43562,"ELEMENT_SET_NO":999,"REV_AT_EPOCH":2863,"BSTAR":0,"MEAN_MOTION_DOT":-2.9e-6,"MEAN_MOTION_DDOT":0},{"OBJECT_NAME":"TELKOM 4 (MERAH PUTIH)","OBJECT_ID":"2018-064A","EPOCH":"2026-04-27T02:53:38.567328","MEAN_MOTION":1.00272132,"ECCENTRICITY":0.0002125,"INCLINATION":0.0148,"RA_OF_ASC_NODE":242.3065,"ARG_OF_PERICENTER":185.3477,"MEAN_ANOMALY":298.8674,"EPHEMERIS_TYPE":0,"CLASSIFICATION_TYPE":"U","NORAD_CAT_ID":43587,"ELEMENT_SET_NO":999,"REV_AT_EPOCH":2836,"BSTAR":0,"MEAN_MOTION_DOT":-3.54e-6,"MEAN_MOTION_DDOT":0},{"OBJECT_NAME":"TELSTAR 18V","OBJECT_ID":"2018-069A","EPOCH":"2026-04-26T22:46:49.239264","MEAN_MOTION":1.00271937,"ECCENTRICITY":0.0002026,"INCLINATION":0.0144,"RA_OF_ASC_NODE":266.5213,"ARG_OF_PERICENTER":118.744,"MEAN_ANOMALY":309.3871,"EPHEMERIS_TYPE":0,"CLASSIFICATION_TYPE":"U","NORAD_CAT_ID":43611,"ELEMENT_SET_NO":999,"REV_AT_EPOCH":2812,"BSTAR":0,"MEAN_MOTION_DOT":-3.05e-6,"MEAN_MOTION_DDOT":0},{"OBJECT_NAME":"AZERSPACE 2 (IS-38)","OBJECT_ID":"2018-074A","EPOCH":"2026-04-27T04:48:38.757312","MEAN_MOTION":1.00270976,"ECCENTRICITY":0.0001444,"INCLINATION":0.0215,"RA_OF_ASC_NODE":254.193,"ARG_OF_PERICENTER":133.4629,"MEAN_ANOMALY":304.8047,"EPHEMERIS_TYPE":0,"CLASSIFICATION_TYPE":"U","NORAD_CAT_ID":43632,"ELEMENT_SET_NO":999,"REV_AT_EPOCH":2793,"BSTAR":0,"MEAN_MOTION_DOT":1.26e-6,"MEAN_MOTION_DDOT":0},{"OBJECT_NAME":"HORIZONS-3E","OBJECT_ID":"2018-074B","EPOCH":"2026-04-27T02:34:38.741376","MEAN_MOTION":1.0027131,"ECCENTRICITY":6.66e-5,"INCLINATION":0.0414,"RA_OF_ASC_NODE":73.903,"ARG_OF_PERICENTER":260.1791,"MEAN_ANOMALY":88.6672,"EPHEMERIS_TYPE":0,"CLASSIFICATION_TYPE":"U","NORAD_CAT_ID":43633,"ELEMENT_SET_NO":999,"REV_AT_EPOCH":2782,"BSTAR":0,"MEAN_MOTION_DOT":-4.1e-7,"MEAN_MOTION_DDOT":0},{"OBJECT_NAME":"BEIDOU-3 G1","OBJECT_ID":"2018-085A","EPOCH":"2026-04-27T05:16:54.339168","MEAN_MOTION":1.00265507,"ECCENTRICITY":0.0007393,"INCLINATION":2.9471,"RA_OF_ASC_NODE":98.7246,"ARG_OF_PERICENTER":333.3417,"MEAN_ANOMALY":22.2927,"EPHEMERIS_TYPE":0,"CLASSIFICATION_TYPE":"U","NORAD_CAT_ID":43683,"ELEMENT_SET_NO":999,"REV_AT_EPOCH":2754,"BSTAR":0,"MEAN_MOTION_DOT":-1.17e-6,"MEAN_MOTION_DDOT":0},{"OBJECT_NAME":"GSAT-29","OBJECT_ID":"2018-089A","EPOCH":"2026-04-27T04:40:38.534880","MEAN_MOTION":1.00271806,"ECCENTRICITY":0.000401,"INCLINATION":0.0718,"RA_OF_ASC_NODE":258.7576,"ARG_OF_PERICENTER":126.51,"MEAN_ANOMALY":315.1403,"EPHEMERIS_TYPE":0,"CLASSIFICATION_TYPE":"U","NORAD_CAT_ID":43698,"ELEMENT_SET_NO":999,"REV_AT_EPOCH":2727,"BSTAR":0,"MEAN_MOTION_DOT":7.5e-7,"MEAN_MOTION_DDOT":0},{"OBJECT_NAME":"ES'HAIL 2","OBJECT_ID":"2018-090A","EPOCH":"2026-04-26T13:41:25.247040","MEAN_MOTION":1.0027461,"ECCENTRICITY":0.0001354,"INCLINATION":0.0402,"RA_OF_ASC_NODE":76.1329,"ARG_OF_PERICENTER":345.0735,"MEAN_ANOMALY":24.5116,"EPHEMERIS_TYPE":0,"CLASSIFICATION_TYPE":"U","NORAD_CAT_ID":43700,"ELEMENT_SET_NO":999,"REV_AT_EPOCH":2715,"BSTAR":0,"MEAN_MOTION_DOT":1.32e-6,"MEAN_MOTION_DDOT":0},{"OBJECT_NAME":"GEO-KOMPSAT-2A","OBJECT_ID":"2018-100A","EPOCH":"2026-04-26T22:43:57.013824","MEAN_MOTION":1.00270973,"ECCENTRICITY":0.0002006,"INCLINATION":0.0568,"RA_OF_ASC_NODE":67.9377,"ARG_OF_PERICENTER":358.3688,"MEAN_ANOMALY":257.888,"EPHEMERIS_TYPE":0,"CLASSIFICATION_TYPE":"U","NORAD_CAT_ID":43823,"ELEMENT_SET_NO":999,"REV_AT_EPOCH":2711,"BSTAR":0,"MEAN_MOTION_DOT":-3.55e-6,"MEAN_MOTION_DDOT":0},{"OBJECT_NAME":"GSAT-11","OBJECT_ID":"2018-100B","EPOCH":"2026-04-27T00:52:21.689760","MEAN_MOTION":1.00272365,"ECCENTRICITY":0.0006978,"INCLINATION":0.0124,"RA_OF_ASC_NODE":247.4926,"ARG_OF_PERICENTER":182.5031,"MEAN_ANOMALY":232.1269,"EPHEMERIS_TYPE":0,"CLASSIFICATION_TYPE":"U","NORAD_CAT_ID":43824,"ELEMENT_SET_NO":999,"REV_AT_EPOCH":2696,"BSTAR":0,"MEAN_MOTION_DOT":-8.8e-7,"MEAN_MOTION_DDOT":0}]
